NORBI                   
1 46494U 20068J   26203.61783215  .00024815  00000+0  44524-3 0  9990
2 46494  97.8622 222.7439 0008684 122.5916 237.6174 15.49871554321694
SALSAT                  
1 46495U 20068K   26203.46128258  .00007239  00000+0  24997-3 0  9997
2 46495  97.8868 208.6876 0009977 167.8214 192.3268 15.30243913320753
ICEYE-X6                
1 46497U 20068M   26203.57112466  .00002161  00000+0  15837-3 0  9997
2 46497  98.0996 198.9416 0006438 348.2269  11.8804 15.04692574318553
NETSAT-4                
1 46504U 20068U   26203.50045616  .00019129  00000+0  40798-3 0  9997
2 46504  97.8612 214.6093 0005631 168.7505 191.3869 15.44937463321229
NETSAT-3                
1 46505U 20068V   26203.01472178  .00019756  00000+0  43820-3 0  9996
2 46505  97.8664 212.2581 0004660 184.8573 175.2630 15.43774416321052
NETSAT-1                
1 46506U 20068W   26203.46684142  .00012773  00000+0  37418-3 0  9990
2 46506  97.8765 206.6517 0003017 222.2232 137.8779 15.35366097320718
NETSAT-2                
1 46507U 20068X   26202.90586135  .00024350  00000+0  47723-3 0  9996
2 46507  97.8624 213.9959 0003149 182.0467 178.0769 15.47372394321103
TIANQI-6                
1 46810U 20076D   26203.30967157  .00003060  00000+0  19984-3 0  9997
2 46810  34.9974 192.8699 0009561 122.8198 237.3433 15.07381463313889
KSM1-C                  
1 46906U 20081B   26203.33759152  .00007256  00000+0  26885-3 0  9995
2 46906  36.8935 201.8476 0002377 193.5477 166.5209 15.27246646314543
KSM1-D                  
1 46907U 20081C   26203.38677907  .00006257  00000+0  24743-3 0  9999
2 46907  36.8945 211.2439 0004098 205.9667 154.0876 15.25158515314479
KSM1-A                  
1 46912U 20081H   26203.35916250  .00007092  00000+0  26929-3 0  9995
2 46912  36.8940 204.3790 0004215 248.2890 111.7411 15.26438841314550
R2                      
1 46913U 20081J   26203.19683257  .00007420  00000+0  28606-3 0  9995
2 46913  36.8966 205.5444 0009060 224.3691 135.6333 15.25886481317338
KSM1-B                  
1 46914U 20081K   26203.39519499  .00006283  00000+0  24996-3 0  9998
2 46914  36.9000 211.8833 0006113 220.6364 139.3929 15.24942974317569
GONETS-M 20             
1 47227U 20091A   26203.58559509  .00000024  00000+0  10334-3 0  9992
2 47227  82.5037 280.4338 0022205 103.6994 256.6560 12.42894722255474
GONETS-M 21             
1 47228U 20091B   26203.64013803  .00000064  00000+0  39149-3 0  9991
2 47228  82.4960 279.0852 0016017 116.8609 243.4110 12.42887782255470
GONETS-M 22             
1 47229U 20091C   26203.61307405  .00000005  00000+0 -34380-4 0  9992
2 47229  82.5019 280.0172 0023058  99.1611 261.2078 12.42893715255422
CUBEL                   
1 47448U 21006AM  26203.40438888  .00021177  00000+0  49433-3 0  9995
2 47448  97.2309 253.6755 0007387  61.7692 298.4301 15.42200712305186
ARKTIKA-M 1             
1 47719U 21016A   26198.89672402 -.00000295  00000+0  00000+0 0  9997
2 47719  63.2571  53.1467 7298516 270.0868  14.5016  2.00610215 39409
STARLINK-2342           
1 47883U 21021Z   26203.66668981  .00455798  97372-4  10021-2 0  9995
2 47883  53.1494 328.2878 0011982 324.0382  45.9508 15.97433441  6030
GRUS-1B                 
1 47934U 21022C   26203.62789476  .00001711  00000+0  14645-3 0  9998
2 47934  97.5342  85.6408 0014691 189.6324 170.4619 14.98796810291209
UNISAT-7                
1 47945U 21022P   26203.48572178  .00015191  00000+0  36579-3 0  9990
2 47945  97.3845 108.7940 0006940 318.0543  42.0172 15.41340096295295
GLOBAL-9                
1 47971U 21023G   26202.85898002  .00023420  00000+0  44648-3 0  9997
2 47971  44.9818  55.4613 0004313 211.2117 148.8518 15.47807344300319
AII-BRAVO               
1 48270U 21034C   26203.09255531  .00004290  00000+0  31706-3 0  9998
2 48270  97.5608 257.2081 0006960 138.8561 221.3191 15.03713083284864
TYVAK-182A              
1 48271U 21034D   26203.40464827  .00003158  00000+0  21827-3 0  9999
2 48271  97.5701 261.7134 0005508 192.9219 167.1868 15.06440610285131
CSS (TIANHE)            
1 48274U 21035A   26203.45756980  .00010144  00000+0  13442-3 0  9999
2 48274  41.4671 107.8074 0001199 305.3687  54.7038 15.58249100298673
TYVAK-0130              
1 48606U 21041BF  26203.43552771  .00005255  00000+0  20231-3 0  9996
2 48606  52.9940 222.3314 0008411 286.9136  73.0939 15.28001324285777
HAIYANG-2D              
1 48621U 21043A   26203.57236626 -.00000128  00000+0 -42832-4 0  9996
2 48621  65.9966 216.6025 0011617 264.8598  95.1145 13.83373722261445
2021-050D               
1 48843U 21050D   26203.60608122  .00009532  00000+0  40009-3 0  9997
2 48843  97.3323 278.8400 0006965 130.7780 229.4063 15.23653240284356
