OBJECT_NAME,OBJECT_ID,EPOCH,MEAN_MOTION,ECCENTRICITY,INCLINATION,RA_OF_ASC_NODE,ARG_OF_PERICENTER,MEAN_ANOMALY,EPHEMERIS_TYPE,CLASSIFICATION_TYPE,NORAD_CAT_ID,ELEMENT_SET_NO,REV_AT_EPOCH,BSTAR,MEAN_MOTION_DOT,MEAN_MOTION_DDOT
NORBI,2020-068J,2026-07-22T14:49:40.697760,15.49871554,.00086848,97.8622,222.7439,122.5916,237.6174,0,U,46494,999,32169,.44524233E-3,.24815E-3,0
SALSAT,2020-068K,2026-07-22T11:04:14.814912,15.30243913,.00099778,97.8868,208.6876,167.8214,192.3268,0,U,46495,999,32075,.24997179E-3,.7239E-4,0
ICEYE-X6,2020-068M,2026-07-22T13:42:25.170624,15.04692574,.00064385,98.0996,198.9416,348.2269,11.8804,0,U,46497,999,31855,.15837264E-3,.2161E-4,0
NETSAT-4,2020-068U,2026-07-22T12:00:39.412224,15.44937463,.00056313,97.8612,214.6093,168.7505,191.3869,0,U,46504,999,32122,.40797925E-3,.19129E-3,0
NETSAT-3,2020-068V,2026-07-22T00:21:11.961792,15.43774416,.00046608,97.8664,212.2581,184.8573,175.2630,0,U,46505,999,32105,.43820067E-3,.19756E-3,0
NETSAT-1,2020-068W,2026-07-22T11:12:15.098688,15.35366097,.00030173,97.8765,206.6517,222.2232,137.8779,0,U,46506,999,32071,.37417845E-3,.12773E-3,0
NETSAT-2,2020-068X,2026-07-21T21:44:26.420640,15.47372394,.00031492,97.8624,213.9959,182.0467,178.0769,0,U,46507,999,32110,.4772301E-3,.2435E-3,0
TIANQI-6,2020-076D,2026-07-22T07:25:55.623648,15.07381463,.00095612,34.9974,192.8699,122.8198,237.3433,0,U,46810,999,31388,.19983922E-3,.306E-4,0
KSM1-C,2020-081B,2026-07-22T08:06:07.907328,15.27246646,.0002377,36.8935,201.8476,193.5477,166.5209,0,U,46906,999,31454,.26884706E-3,.7256E-4,0
KSM1-D,2020-081C,2026-07-22T09:16:57.711648,15.25158515,.00040981,36.8945,211.2439,205.9667,154.0876,0,U,46907,999,31447,.24743005E-3,.6257E-4,0
KSM1-A,2020-081H,2026-07-22T08:37:11.640000,15.26438841,.0004215,36.8940,204.3790,248.2890,111.7411,0,U,46912,999,31455,.26929392E-3,.7092E-4,0
R2,2020-081J,2026-07-22T04:43:26.334048,15.25886481,.00090603,36.8966,205.5444,224.3691,135.6333,0,U,46913,999,31733,.28605862E-3,.742E-4,0
KSM1-B,2020-081K,2026-07-22T09:29:04.847136,15.24942974,.00061133,36.9000,211.8833,220.6364,139.3929,0,U,46914,999,31756,.2499595E-3,.6283E-4,0
GONETS-M 20,2020-091A,2026-07-22T14:03:15.415776,12.42894722,.00222054,82.5037,280.4338,103.6994,256.6560,0,U,47227,999,25547,.10334486E-3,.24E-6,0
GONETS-M 21,2020-091B,2026-07-22T15:21:47.925792,12.42887782,.00160172,82.4960,279.0852,116.8609,243.4110,0,U,47228,999,25547,.39149334E-3,.64E-6,0
GONETS-M 22,2020-091C,2026-07-22T14:42:49.597920,12.42893715,.0023058,82.5019,280.0172,99.1611,261.2078,0,U,47229,999,25542,-.34379539E-4,.5E-7,0
CUBEL,2021-006AM,2026-07-22T09:42:19.199232,15.42200712,.0007387,97.2309,253.6755,61.7692,298.4301,0,U,47448,999,30518,.49432922E-3,.21177E-3,0
ARKTIKA-M 1,2021-016A,2026-07-17T21:31:16.955328,2.00610215,.72985164,63.2571,53.1467,270.0868,14.5016,0,U,47719,999,3940,0,-.295E-5,0
STARLINK-2342,2021-021Z,2026-07-22T16:00:01.999584,15.97433441,.00119821,53.1494,328.2878,324.0382,45.9508,0,U,47883,999,603,.10020722E-2,.455798E-2,.97371734E-4
GRUS-1B,2021-022C,2026-07-22T15:04:10.107264,14.98796810,.00146912,97.5342,85.6408,189.6324,170.4619,0,U,47934,999,29120,.14645278E-3,.1711E-4,0
UNISAT-7,2021-022P,2026-07-22T11:39:26.361792,15.41340096,.00069409,97.3845,108.7940,318.0543,42.0172,0,U,47945,999,29529,.36579267E-3,.15191E-3,0
GLOBAL-9,2021-023G,2026-07-21T20:36:55.873728,15.47807344,.00043131,44.9818,55.4613,211.2117,148.8518,0,U,47971,999,30031,.44647524E-3,.2342E-3,0
AII-BRAVO,2021-034C,2026-07-22T02:13:16.778784,15.03713083,.00069604,97.5608,257.2081,138.8561,221.3191,0,U,48270,999,28486,.3170604E-3,.429E-4,0
TYVAK-182A,2021-034D,2026-07-22T09:42:41.610528,15.06440610,.0005508,97.5701,261.7134,192.9219,167.1868,0,U,48271,999,28513,.21826501E-3,.3158E-4,0
CSS (TIANHE),2021-035A,2026-07-22T10:58:54.030720,15.58249100,.00011997,41.4671,107.8074,305.3687,54.7038,0,U,48274,999,29867,.13441968E-3,.10144E-3,0
TYVAK-0130,2021-041BF,2026-07-22T10:27:09.594144,15.28001324,.00084118,52.9940,222.3314,286.9136,73.0939,0,U,48606,999,28577,.20230683E-3,.5255E-4,0
HAIYANG-2D,2021-043A,2026-07-22T13:44:12.444864,13.83373722,.00116177,65.9966,216.6025,264.8598,95.1145,0,U,48621,999,26144,-.42832298E-4,-.128E-5,0
2021-050D,2021-050D,2026-07-22T14:32:45.417408,15.23653240,.00069659,97.3323,278.8400,130.7780,229.4063,0,U,48843,999,28435,.40008503E-3,.9532E-4,0
